{
  "type": "FeatureCollection",
  "features": [
    {
      "type": "Feature",
      "properties": {
        "norad_id": 32393,
        "name": "COSMOS 2434 (721)",
        "group": "gnss",
        "lat": 30.111750566451153,
        "lon": -145.83241298472498,
        "alt_km": 19117.11355273382,
        "timestamp": "2025-12-20T07:33:51.055359+00:00",
        "meta_object_name": "COSMOS 2434 (721)",
        "meta_object_id": "2007-065A",
        "meta_epoch": "2025-12-19T19:17:09.813120",
        "meta_mean_motion": 2.13101403,
        "meta_eccentricity": 0.00046358,
        "meta_inclination": 64.315,
        "meta_ra_of_asc_node": 197.9648,
        "meta_arg_of_pericenter": 71.2992,
        "meta_mean_anomaly": 290.1665,
        "meta_ephemeris_type": 0,
        "meta_classification_type": "U",
        "meta_norad_cat_id": 32393,
        "meta_element_set_no": 999,
        "meta_rev_at_epoch": 13995,
        "meta_bstar": 0,
        "meta_mean_motion_dot": 1.03e-06,
        "meta_mean_motion_ddot": 0,
        "tle_line1": "1 32393U 07065A   25353.80358580  .00000103  00000+0  00000+0 0  9995",
        "tle_line2": "2 32393  64.3150 197.9648 0004635  71.2992 290.1665  2.13101403139954"
      },
      "geometry": {
        "type": "Point",
        "coordinates": [
          -145.83241298472498,
          30.111750566451153
        ]
      }
    },
    {
      "type": "Feature",
      "properties": {
        "norad_id": 32395,
        "name": "COSMOS 2436 (723)",
        "group": "gnss",
        "lat": 11.652731610930068,
        "lon": 12.326017488197982,
        "alt_km": 19170.902247442144,
        "timestamp": "2025-12-20T07:33:51.055373+00:00",
        "meta_object_name": "COSMOS 2436 (723)",
        "meta_object_id": "2007-065C",
        "meta_epoch": "2025-12-19T09:42:12.629376",
        "meta_mean_motion": 2.13100261,
        "meta_eccentricity": 0.0017823,
        "meta_inclination": 64.3238,
        "meta_ra_of_asc_node": 198.0487,
        "meta_arg_of_pericenter": 9.8735,
        "meta_mean_anomaly": 178.3327,
        "meta_ephemeris_type": 0,
        "meta_classification_type": "U",
        "meta_norad_cat_id": 32395,
        "meta_element_set_no": 999,
        "meta_rev_at_epoch": 13989,
        "meta_bstar": 0,
        "meta_mean_motion_dot": 1.05e-06,
        "meta_mean_motion_ddot": 0,
        "tle_line1": "1 32395U 07065C   25353.40431284  .00000105  00000+0  00000+0 0  9998",
        "tle_line2": "2 32395  64.3238 198.0487 0017823   9.8735 178.3327  2.13100261139897"
      },
      "geometry": {
        "type": "Point",
        "coordinates": [
          12.326017488197982,
          11.652731610930068
        ]
      }
    },
    {
      "type": "Feature",
      "properties": {
        "norad_id": 32711,
        "name": "GPS BIIRM-6 (PRN 07)",
        "group": "gnss",
        "lat": 48.14507660052824,
        "lon": -75.85268684580652,
        "alt_km": 20525.62636636292,
        "timestamp": "2025-12-20T07:33:51.055385+00:00",
        "meta_object_name": "GPS BIIRM-6 (PRN 07)",
        "meta_object_id": "2008-012A",
        "meta_epoch": "2025-12-19T15:41:26.858112",
        "meta_mean_motion": 2.00565937,
        "meta_eccentricity": 0.0202735,
        "meta_inclination": 54.4779,
        "meta_ra_of_asc_node": 157.0969,
        "meta_arg_of_pericenter": 245.0276,
        "meta_mean_anomaly": 112.8468,
        "meta_ephemeris_type": 0,
        "meta_classification_type": "U",
        "meta_norad_cat_id": 32711,
        "meta_element_set_no": 999,
        "meta_rev_at_epoch": 13015,
        "meta_bstar": 0,
        "meta_mean_motion_dot": 6.7e-07,
        "meta_mean_motion_ddot": 0,
        "tle_line1": "1 32711U 08012A   25353.65378308  .00000067  00000+0  00000+0 0  9994",
        "tle_line2": "2 32711  54.4779 157.0969 0202735 245.0276 112.8468  2.00565937130151"
      },
      "geometry": {
        "type": "Point",
        "coordinates": [
          -75.85268684580652,
          48.14507660052824
        ]
      }
    },
    {
      "type": "Feature",
      "properties": {
        "norad_id": 35752,
        "name": "GPS BIIRM-8 (PRN 05)",
        "group": "gnss",
        "lat": 35.33765776642984,
        "lon": -173.95541826872162,
        "alt_km": 20096.532069060577,
        "timestamp": "2025-12-20T07:33:51.055398+00:00",
        "meta_object_name": "GPS BIIRM-8 (PRN 05)",
        "meta_object_id": "2009-043A",
        "meta_epoch": "2025-12-18T04:21:14.473728",
        "meta_mean_motion": 2.00565462,
        "meta_eccentricity": 0.00516833,
        "meta_inclination": 56.0947,
        "meta_ra_of_asc_node": 34.5684,
        "meta_arg_of_pericenter": 81.8123,
        "meta_mean_anomaly": 312.8651,
        "meta_ephemeris_type": 0,
        "meta_classification_type": "U",
        "meta_norad_cat_id": 35752,
        "meta_element_set_no": 999,
        "meta_rev_at_epoch": 11973,
        "meta_bstar": 0,
        "meta_mean_motion_dot": -7.2e-07,
        "meta_mean_motion_ddot": 0,
        "tle_line1": "1 35752U 09043A   25352.18141752 -.00000072  00000+0  00000+0 0  9992",
        "tle_line2": "2 35752  56.0947  34.5684 0051683  81.8123 312.8651  2.00565462119738"
      },
      "geometry": {
        "type": "Point",
        "coordinates": [
          -173.95541826872162,
          35.33765776642984
        ]
      }
    },
    {
      "type": "Feature",
      "properties": {
        "norad_id": 36111,
        "name": "COSMOS 2456 (730)",
        "group": "gnss",
        "lat": -9.998219202802215,
        "lon": -98.17727147905475,
        "alt_km": 19133.89510966361,
        "timestamp": "2025-12-20T07:33:51.055409+00:00",
        "meta_object_name": "COSMOS 2456 (730)",
        "meta_object_id": "2009-070A",
        "meta_epoch": "2025-12-19T16:51:58.589280",
        "meta_mean_motion": 2.13103691,
        "meta_eccentricity": 0.00032664,
        "meta_inclination": 64.904,
        "meta_ra_of_asc_node": 77.0998,
        "meta_arg_of_pericenter": 297.1615,
        "meta_mean_anomaly": 144.0755,
        "meta_ephemeris_type": 0,
        "meta_classification_type": "U",
        "meta_norad_cat_id": 36111,
        "meta_element_set_no": 999,
        "meta_rev_at_epoch": 12460,
        "meta_bstar": 0,
        "meta_mean_motion_dot": -2.7e-07,
        "meta_mean_motion_ddot": 0,
        "tle_line1": "1 36111U 09070A   25353.70276145 -.00000027  00000+0  00000+0 0  9996",
        "tle_line2": "2 36111  64.9040  77.0998 0003266 297.1615 144.0755  2.13103691124600"
      },
      "geometry": {
        "type": "Point",
        "coordinates": [
          -98.17727147905475,
          -9.998219202802215
        ]
      }
    },
    {
      "type": "Feature",
      "properties": {
        "norad_id": 36112,
        "name": "COSMOS 2457 (733)",
        "group": "gnss",
        "lat": -35.49809042695963,
        "lon": 57.43425167445497,
        "alt_km": 19145.473385310135,
        "timestamp": "2025-12-20T07:33:51.055420+00:00",
        "meta_object_name": "COSMOS 2457 (733)",
        "meta_object_id": "2009-070B",
        "meta_epoch": "2025-12-19T12:47:22.832160",
        "meta_mean_motion": 2.13101086,
        "meta_eccentricity": 0.0004579,
        "meta_inclination": 64.8894,
        "meta_ra_of_asc_node": 76.9529,
        "meta_arg_of_pericenter": 161.1215,
        "meta_mean_anomaly": 278.8833,
        "meta_ephemeris_type": 0,
        "meta_classification_type": "U",
        "meta_norad_cat_id": 36112,
        "meta_element_set_no": 999,
        "meta_rev_at_epoch": 12460,
        "meta_bstar": 0,
        "meta_mean_motion_dot": -2.8e-07,
        "meta_mean_motion_ddot": 0,
        "tle_line1": "1 36112U 09070B   25353.53290315 -.00000028  00000+0  00000+0 0  9994",
        "tle_line2": "2 36112  64.8894  76.9529 0004579 161.1215 278.8833  2.13101086124608"
      },
      "geometry": {
        "type": "Point",
        "coordinates": [
          57.43425167445497,
          -35.49809042695963
        ]
      }
    },
    {
      "type": "Feature",
      "properties": {
        "norad_id": 36402,
        "name": "COSMOS 2460 (732)",
        "group": "gnss",
        "lat": -36.00501782500806,
        "lon": -58.819864849544196,
        "alt_km": 19129.22036886042,
        "timestamp": "2025-12-20T07:33:51.055432+00:00",
        "meta_object_name": "COSMOS 2460 (732)",
        "meta_object_id": "2010-007C",
        "meta_epoch": "2025-12-19T13:42:43.098624",
        "meta_mean_motion": 2.131063,
        "meta_eccentricity": 0.0002543,
        "meta_inclination": 65.526,
        "meta_ra_of_asc_node": 320.5423,
        "meta_arg_of_pericenter": 279.9868,
        "meta_mean_anomaly": 189.087,
        "meta_ephemeris_type": 0,
        "meta_classification_type": "U",
        "meta_norad_cat_id": 36402,
        "meta_element_set_no": 999,
        "meta_rev_at_epoch": 12290,
        "meta_bstar": 0,
        "meta_mean_motion_dot": -5.7e-07,
        "meta_mean_motion_ddot": 0,
        "tle_line1": "1 36402U 10007C   25353.57133216 -.00000057  00000+0  00000+0 0  9990",
        "tle_line2": "2 36402  65.5260 320.5423 0002543 279.9868 189.0870  2.13106300122906"
      },
      "geometry": {
        "type": "Point",
        "coordinates": [
          -58.819864849544196,
          -36.00501782500806
        ]
      }
    }
  ]
}